COSMOS 2251 DEB         
1 37979U 93036BQE 17344.40814000  .00012156  00000-0  39863-3 0  9999
2 37979  74.0430 254.3227 0072055 107.7935 253.1146 15.29112482431242
